start=new Date('2022-03-28T00:00:00.000Z').valueOf();
sats=[{"CLASSIFICATION_TYPE":"U","CENTER_NAME":"EARTH","COUNTRY_CODE":"US","INCLINATION":"53.0545","GP_ID":"199861310","MEAN_MOTION":"15.06385767","OBJECT_NAME":"STARLINK-1165","REV_AT_EPOCH":"11899","RA_OF_ASC_NODE":"283.7860","PERIAPSIS":"546.058","REF_FRAME":"TEME","ECCENTRICITY":"0.00017310","PERIOD":"95.593","MEAN_ELEMENT_THEORY":"SGP4","ELEMENT_SET_NO":"999","MEAN_MOTION_DOT":"0.00006302","TIME_SYSTEM":"UTC","NORAD_CAT_ID":"45059","EPOCH":"2022-03-27T20:23:20.743296","RCS_SIZE":"LARGE","OBJECT_ID":"2020-006R","ARG_OF_PERICENTER":"76.9231","FILE":"3377053","OBJECT_TYPE":"PAYLOAD","LAUNCH_DATE":"2020-01-29","SEMIMAJOR_AXIS":"6925.392","MEAN_ANOMALY":"283.1951","TLE_LINE2":"2 45059  53.0545 283.7860 0001731  76.9231 283.1951 15.06385767118996","TLE_LINE1":"1 45059U 20006R   22086.84954564  .00006302  00000-0  44176-3 0  9990","DECAY_DATE":null,"BSTAR":"0.00044176000000","MEAN_MOTION_DDOT":"0.0000000000000","SITE":"AFETR","APOAPSIS":"548.456","EPHEMERIS_TYPE":"0"},{"OBJECT_NAME":"STARLINK-1166","REV_AT_EPOCH":"11899","PERIAPSIS":"546.074","ECCENTRICITY":"0.00016350","RA_OF_ASC_NODE":"283.7992","REF_FRAME":"TEME","MEAN_MOTION_DOT":"0.00002450","PERIOD":"95.592","MEAN_ELEMENT_THEORY":"SGP4","ELEMENT_SET_NO":"999","CENTER_NAME":"EARTH","COUNTRY_CODE":"US","GP_ID":"199860072","MEAN_MOTION":"15.06402392","INCLINATION":"53.0534","CLASSIFICATION_TYPE":"U","APOAPSIS":"548.339","SITE":"AFETR","EPHEMERIS_TYPE":"0","DECAY_DATE":null,"BSTAR":"0.00018332000000","SEMIMAJOR_AXIS":"6925.341","MEAN_ANOMALY":"299.6023","TLE_LINE2":"2 45060  53.0534 283.7992 0001635  60.5129 299.6023 15.06402392118996","TLE_LINE1":"1 45060U 20006S   22086.84585176  .00002450  00000-0  18332-3 0  9996","MEAN_MOTION_DDOT":"0.0000000000000","ARG_OF_PERICENTER":"60.5129","FILE":"3377053","LAUNCH_DATE":"2020-01-29","OBJECT_TYPE":"PAYLOAD","EPOCH":"2022-03-27T20:18:01.592064","RCS_SIZE":"LARGE","TIME_SYSTEM":"UTC","NORAD_CAT_ID":"45060","OBJECT_ID":"2020-006S"},{"FILE":"3377053","ARG_OF_PERICENTER":"66.0132","OBJECT_TYPE":"PAYLOAD","LAUNCH_DATE":"2020-01-29","NORAD_CAT_ID":"45061","TIME_SYSTEM":"UTC","RCS_SIZE":"LARGE","EPOCH":"2022-03-27T20:28:38.487936","OBJECT_ID":"2020-006T","SITE":"AFETR","APOAPSIS":"548.170","EPHEMERIS_TYPE":"0","TLE_LINE2":"2 45061  53.0532 283.7757 0001358  66.0132 294.0999 15.06394869118991","TLE_LINE1":"1 45061U 20006T   22086.85322324  .00001469  00000-0  11750-3 0  9998","MEAN_ANOMALY":"294.0999","SEMIMAJOR_AXIS":"6925.364","BSTAR":"0.00011750000000","DECAY_DATE":null,"MEAN_MOTION_DDOT":"0.0000000000000","CLASSIFICATION_TYPE":"U","ECCENTRICITY":"0.00013580","PERIAPSIS":"546.289","RA_OF_ASC_NODE":"283.7757","REF_FRAME":"TEME","OBJECT_NAME":"STARLINK-1169","REV_AT_EPOCH":"11899","ELEMENT_SET_NO":"999","MEAN_ELEMENT_THEORY":"SGP4","PERIOD":"95.592","MEAN_MOTION_DOT":"0.00001469","COUNTRY_CODE":"US","CENTER_NAME":"EARTH","INCLINATION":"53.0532","MEAN_MOTION":"15.06394869","GP_ID":"199860322"},{"EPHEMERIS_TYPE":"0","SITE":"AFETR","APOAPSIS":"548.239","MEAN_MOTION_DDOT":"0.0000000000000","TLE_LINE2":"2 45062  53.0540 283.8259 0001488  71.1984 288.9166 15.06401632118990","MEAN_ANOMALY":"288.9166","TLE_LINE1":"1 45062U 20006U   22086.83847797  .00000934  00000-0  81594-4 0  9993","SEMIMAJOR_AXIS":"6925.344","BSTAR":"0.00008159400000","DECAY_DATE":null,"OBJECT_TYPE":"PAYLOAD","LAUNCH_DATE":"2020-01-29","ARG_OF_PERICENTER":"71.1984","FILE":"3377053","OBJECT_ID":"2020-006U","NORAD_CAT_ID":"45062","TIME_SYSTEM":"UTC","RCS_SIZE":"LARGE","EPOCH":"2022-03-27T20:07:24.496608","ELEMENT_SET_NO":"999","PERIOD":"95.592","MEAN_ELEMENT_THEORY":"SGP4","MEAN_MOTION_DOT":"0.00000934","RA_OF_ASC_NODE":"283.8259","PERIAPSIS":"546.178","ECCENTRICITY":"0.00014880","REF_FRAME":"TEME","REV_AT_EPOCH":"11899","OBJECT_NAME":"STARLINK-1171","INCLINATION":"53.0540","MEAN_MOTION":"15.06401632","GP_ID":"199861573","CENTER_NAME":"EARTH","COUNTRY_CODE":"US","CLASSIFICATION_TYPE":"U"},{"CLASSIFICATION_TYPE":"U","RA_OF_ASC_NODE":"263.7711","PERIAPSIS":"546.306","ECCENTRICITY":"0.00013160","REF_FRAME":"TEME","OBJECT_NAME":"STARLINK-1133","REV_AT_EPOCH":"11927","ELEMENT_SET_NO":"999","PERIOD":"95.592","MEAN_ELEMENT_THEORY":"SGP4","MEAN_MOTION_DOT":"-0.00000560","CENTER_NAME":"EARTH","COUNTRY_CODE":"US","INCLINATION":"53.0562","MEAN_MOTION":"15.06398692","GP_ID":"199861810","FILE":"3377053","ARG_OF_PERICENTER":"74.0752","OBJECT_TYPE":"PAYLOAD","LAUNCH_DATE":"2020-01-29","NORAD_CAT_ID":"45064","TIME_SYSTEM":"UTC","EPOCH":"2022-03-27T20:25:59.142144","RCS_SIZE":"LARGE","OBJECT_ID":"2020-006W","SITE":"AFETR","APOAPSIS":"548.129","EPHEMERIS_TYPE":"0","TLE_LINE2":"2 45064  53.0562 263.7711 0001316  74.0752 286.0382 15.06398692119273","TLE_LINE1":"1 45064U 20006W   22086.85137896 -.00000560  00000-0 -18722-4 0  9999","MEAN_ANOMALY":"286.0382","SEMIMAJOR_AXIS":"6925.353","BSTAR":"-0.00001872200000","DECAY_DATE":null,"MEAN_MOTION_DDOT":"0.0000000000000"},{"CLASSIFICATION_TYPE":"U","MEAN_MOTION_DOT":"-0.00000663","ELEMENT_SET_NO":"999","MEAN_ELEMENT_THEORY":"SGP4","PERIOD":"95.593","PERIAPSIS":"546.254","RA_OF_ASC_NODE":"264.0597","REF_FRAME":"TEME","ECCENTRICITY":"0.00014330","REV_AT_EPOCH":"11926","OBJECT_NAME":"STARLINK-1139","MEAN_MOTION":"15.06389174","GP_ID":"199860572","INCLINATION":"53.0539","CENTER_NAME":"EARTH","COUNTRY_CODE":"US","LAUNCH_DATE":"2020-01-29","OBJECT_TYPE":"PAYLOAD","FILE":"3377053","ARG_OF_PERICENTER":"70.6687","OBJECT_ID":"2020-006X","EPOCH":"2022-03-27T18:55:46.086240","RCS_SIZE":"LARGE","NORAD_CAT_ID":"45065","TIME_SYSTEM":"UTC","EPHEMERIS_TYPE":"0","SITE":"AFETR","APOAPSIS":"548.239","MEAN_MOTION_DDOT":"0.0000000000000","BSTAR":"-0.00002564500000","DECAY_DATE":null,"MEAN_ANOMALY":"289.4457","TLE_LINE2":"2 45065  53.0539 264.0597 0001433  70.6687 289.4457 15.06389174119267","TLE_LINE1":"1 45065U 20006X   22086.78872785 -.00000663  00000-0 -25645-4 0  9991","SEMIMAJOR_AXIS":"6925.382"},{"REV_AT_EPOCH":"11926","OBJECT_NAME":"STARLINK-1145","REF_FRAME":"TEME","PERIAPSIS":"546.127","RA_OF_ASC_NODE":"263.8792","ECCENTRICITY":"0.00015400","MEAN_ELEMENT_THEORY":"SGP4","PERIOD":"95.592","ELEMENT_SET_NO":"999","MEAN_MOTION_DOT":"0.00003921","CENTER_NAME":"EARTH","COUNTRY_CODE":"US","INCLINATION":"53.0530","GP_ID":"199860822","MEAN_MOTION":"15.06406660","CLASSIFICATION_TYPE":"U","SITE":"AFETR","APOAPSIS":"548.260","EPHEMERIS_TYPE":"0","SEMIMAJOR_AXIS":"6925.328","TLE_LINE1":"1 45066U 20006Y   22086.82926790  .00003921  00000-0  28191-3 0  9999","TLE_LINE2":"2 45066  53.0530 263.8792 0001540  64.2025 295.9123 15.06406660119269","MEAN_ANOMALY":"295.9123","DECAY_DATE":null,"BSTAR":"0.00028191000000","MEAN_MOTION_DDOT":"0.0000000000000","ARG_OF_PERICENTER":"64.2025","FILE":"3377053","OBJECT_TYPE":"PAYLOAD","LAUNCH_DATE":"2020-01-29","TIME_SYSTEM":"UTC","NORAD_CAT_ID":"45066","RCS_SIZE":"LARGE","EPOCH":"2022-03-27T19:54:08.746560","OBJECT_ID":"2020-006Y"},{"FILE":"3377053","ARG_OF_PERICENTER":"72.1719","LAUNCH_DATE":"2020-01-29","OBJECT_TYPE":"PAYLOAD","RCS_SIZE":"LARGE","EPOCH":"2022-03-27T20:15:22.965120","NORAD_CAT_ID":"45067","TIME_SYSTEM":"UTC","OBJECT_ID":"2020-006Z","SITE":"AFETR","APOAPSIS":"548.172","EPHEMERIS_TYPE":"0","BSTAR":"-0.00004191800000","DECAY_DATE":null,"MEAN_ANOMALY":"287.9416","TLE_LINE2":"2 45067  53.0540 263.7902 0001336  72.1719 287.9416 15.06389125119615","TLE_LINE1":"1 45067U 20006Z   22086.84401580 -.00000906  00000-0 -41918-4 0  9992","SEMIMAJOR_AXIS":"6925.382","MEAN_MOTION_DDOT":"0.0000000000000","CLASSIFICATION_TYPE":"U","PERIAPSIS":"546.322","RA_OF_ASC_NODE":"263.7902","ECCENTRICITY":"0.00013360","REF_FRAME":"TEME","OBJECT_NAME":"STARLINK-1150","REV_AT_EPOCH":"11961","MEAN_MOTION_DOT":"-0.00000906","ELEMENT_SET_NO":"999","MEAN_ELEMENT_THEORY":"SGP4","PERIOD":"95.593","CENTER_NAME":"EARTH","COUNTRY_CODE":"US","MEAN_MOTION":"15.06389125","GP_ID":"199861074","INCLINATION":"53.0540"},{"EPHEMERIS_TYPE":"0","APOAPSIS":"548.137","SITE":"AFETR","MEAN_MOTION_DDOT":"0.0000000000000","BSTAR":"0.00010267000000","DECAY_DATE":null,"TLE_LINE2":"2 45068  53.0562 264.0667 0001354  87.3059 272.8085 15.06404583119258","MEAN_ANOMALY":"272.8085","TLE_LINE1":"1 45068U 20006AA  22086.75090970  .00001248  00000-0  10267-3 0  9990","SEMIMAJOR_AXIS":"6925.335","LAUNCH_DATE":"2020-01-29","OBJECT_TYPE":"PAYLOAD","FILE":"3377053","ARG_OF_PERICENTER":"87.3059","OBJECT_ID":"2020-006AA","EPOCH":"2022-03-27T18:01:18.598080","RCS_SIZE":"LARGE","NORAD_CAT_ID":"45068","TIME_SYSTEM":"UTC","MEAN_MOTION_DOT":"0.00001248","ELEMENT_SET_NO":"999","PERIOD":"95.592","MEAN_ELEMENT_THEORY":"SGP4","RA_OF_ASC_NODE":"264.0667","PERIAPSIS":"546.262","ECCENTRICITY":"0.00013540","REF_FRAME":"TEME","OBJECT_NAME":"STARLINK-1161","REV_AT_EPOCH":"11925","MEAN_MOTION":"15.06404583","GP_ID":"199861311","INCLINATION":"53.0562","COUNTRY_CODE":"US","CENTER_NAME":"EARTH","CLASSIFICATION_TYPE":"U"},{"OBJECT_ID":"2020-006AD","RCS_SIZE":"LARGE","EPOCH":"2022-03-27T21:03:08.395200","NORAD_CAT_ID":"45071","TIME_SYSTEM":"UTC","LAUNCH_DATE":"2020-01-29","OBJECT_TYPE":"PAYLOAD","FILE":"3377053","ARG_OF_PERICENTER":"73.1787","MEAN_MOTION_DDOT":"0.0000000000000","BSTAR":"0.00031348000000","DECAY_DATE":null,"TLE_LINE2":"2 45071  53.0537 263.6648 0001535  73.1787 286.9370 15.06405917119615","MEAN_ANOMALY":"286.9370","TLE_LINE1":"1 45071U 20006AD  22086.87718050  .00004392  00000-0  31348-3 0  9999","SEMIMAJOR_AXIS":"6925.330","EPHEMERIS_TYPE":"0","SITE":"AFETR","APOAPSIS":"548.258","CLASSIFICATION_TYPE":"U","MEAN_MOTION":"15.06405917","GP_ID":"199860073","INCLINATION":"53.0537","COUNTRY_CODE":"US","CENTER_NAME":"EARTH","MEAN_MOTION_DOT":"0.00004392","ELEMENT_SET_NO":"999","PERIOD":"95.592","MEAN_ELEMENT_THEORY":"SGP4","PERIAPSIS":"546.132","REF_FRAME":"TEME","RA_OF_ASC_NODE":"263.6648","ECCENTRICITY":"0.00015350","REV_AT_EPOCH":"11961","OBJECT_NAME":"STARLINK-1167"}];
